ORBCOMM FM05 [-]        
1 25117U 97084F   23273.32307606  .00002079  00000+0  67879-3 0  9995
2 25117  45.0146 121.5307 0002367 330.5266  29.5450 14.41439406351112
ORBCOMM FM06 [+]        
1 25118U 97084G   23273.83663259  .00002358  00000+0  76470-3 0  9998
2 25118  45.0138 119.2354 0001602 353.3979  20.8377 14.41380515351180
ORBCOMM FM07 [-]        
1 25119U 97084H   23273.53779414  .00002090  00000+0  68377-3 0  9997
2 25119  45.0133 121.0935 0002792 314.1700  45.8919 14.41325023351137
ORBCOMM FM03 [-]        
1 25158U 98007B   23273.77582631  .00001517  00000+0  61353-3 0  9995
2 25158 107.9828 294.0001 0049847 260.1205  99.4304 14.31295742334605
ORBCOMM FM04 [+]        
1 25159U 98007C   23274.01462996  .00001438  00000+0  58253-3 0  9992
2 25159 107.9807 297.2765 0045332 257.8354 101.7704 14.31570409334773
ORBCOMM FM17 [-]        
1 25413U 98046A   23273.42750989  .00001309  00000+0  53166-3 0  9999
2 25413  44.9960 323.9845 0003403 284.3453  75.7015 14.32351402313548
ORBCOMM FM18 [-]        
1 25414U 98046B   23273.69137132  .00002148  00000+0  79877-3 0  9997
2 25414  44.9930 254.3371 0004880 349.7628  10.3119 14.34840925314475
ORBCOMM FM19 [+]        
1 25415U 98046C   23273.98498463  .00002298  00000+0  85328-3 0  9991
2 25415  44.9939 254.0879 0004174 337.4250  37.8876 14.34720680314510
