<?xml version="1.0" encoding="UTF-8"?>
<ndm xmlns:xsi="http://www.w3.org/2001/XMLSchema-instance" xsi:noNamespaceSchemaLocation="https://sanaregistry.org/r/ndmxml_unqualified/ndmxml-2.0.0-master-2.0.xsd">
<omm id="CCSDS_OMM_VERS" version="2.0">
<header><CREATION_DATE/><ORIGINATOR/></header><body><segment><metadata><OBJECT_NAME>ORBCOMM FM05 [-]</OBJECT_NAME><OBJECT_ID>1997-084F</OBJECT_ID><CENTER_NAME>EARTH</CENTER_NAME><REF_FRAME>TEME</REF_FRAME><TIME_SYSTEM>UTC</TIME_SYSTEM><MEAN_ELEMENT_THEORY>SGP4</MEAN_ELEMENT_THEORY></metadata><data><meanElements><EPOCH>2023-09-30T07:45:13.771584</EPOCH><MEAN_MOTION>14.41439406</MEAN_MOTION><ECCENTRICITY>.0002367</ECCENTRICITY><INCLINATION>45.0146</INCLINATION><RA_OF_ASC_NODE>121.5307</RA_OF_ASC_NODE><ARG_OF_PERICENTER>330.5266</ARG_OF_PERICENTER><MEAN_ANOMALY>29.5450</MEAN_ANOMALY></meanElements><tleParameters><EPHEMERIS_TYPE>0</EPHEMERIS_TYPE><CLASSIFICATION_TYPE>U</CLASSIFICATION_TYPE><NORAD_CAT_ID>25117</NORAD_CAT_ID><ELEMENT_SET_NO>999</ELEMENT_SET_NO><REV_AT_EPOCH>35111</REV_AT_EPOCH><BSTAR>.67879E-3</BSTAR><MEAN_MOTION_DOT>.2079E-4</MEAN_MOTION_DOT><MEAN_MOTION_DDOT>0</MEAN_MOTION_DDOT></tleParameters></data></segment></body></omm>
<omm id="CCSDS_OMM_VERS" version="2.0">
<header><CREATION_DATE/><ORIGINATOR/></header><body><segment><metadata><OBJECT_NAME>ORBCOMM FM06 [+]</OBJECT_NAME><OBJECT_ID>1997-084G</OBJECT_ID><CENTER_NAME>EARTH</CENTER_NAME><REF_FRAME>TEME</REF_FRAME><TIME_SYSTEM>UTC</TIME_SYSTEM><MEAN_ELEMENT_THEORY>SGP4</MEAN_ELEMENT_THEORY></metadata><data><meanElements><EPOCH>2023-09-30T20:04:45.055776</EPOCH><MEAN_MOTION>14.41380515</MEAN_MOTION><ECCENTRICITY>.0001602</ECCENTRICITY><INCLINATION>45.0138</INCLINATION><RA_OF_ASC_NODE>119.2354</RA_OF_ASC_NODE><ARG_OF_PERICENTER>353.3979</ARG_OF_PERICENTER><MEAN_ANOMALY>20.8377</MEAN_ANOMALY></meanElements><tleParameters><EPHEMERIS_TYPE>0</EPHEMERIS_TYPE><CLASSIFICATION_TYPE>U</CLASSIFICATION_TYPE><NORAD_CAT_ID>25118</NORAD_CAT_ID><ELEMENT_SET_NO>999</ELEMENT_SET_NO><REV_AT_EPOCH>35118</REV_AT_EPOCH><BSTAR>.7647E-3</BSTAR><MEAN_MOTION_DOT>.2358E-4</MEAN_MOTION_DOT><MEAN_MOTION_DDOT>0</MEAN_MOTION_DDOT></tleParameters></data></segment></body></omm>
<omm id="CCSDS_OMM_VERS" version="2.0">
<header><CREATION_DATE/><ORIGINATOR/></header><body><segment><metadata><OBJECT_NAME>ORBCOMM FM07 [-]</OBJECT_NAME><OBJECT_ID>1997-084H</OBJECT_ID><CENTER_NAME>EARTH</CENTER_NAME><REF_FRAME>TEME</REF_FRAME><TIME_SYSTEM>UTC</TIME_SYSTEM><MEAN_ELEMENT_THEORY>SGP4</MEAN_ELEMENT_THEORY></metadata><data><meanElements><EPOCH>2023-09-30T12:54:25.413696</EPOCH><MEAN_MOTION>14.41325023</MEAN_MOTION><ECCENTRICITY>.0002792</ECCENTRICITY><INCLINATION>45.0133</INCLINATION><RA_OF_ASC_NODE>121.0935</RA_OF_ASC_NODE><ARG_OF_PERICENTER>314.1700</ARG_OF_PERICENTER><MEAN_ANOMALY>45.8919</MEAN_ANOMALY></meanElements><tleParameters><EPHEMERIS_TYPE>0</EPHEMERIS_TYPE><CLASSIFICATION_TYPE>U</CLASSIFICATION_TYPE><NORAD_CAT_ID>25119</NORAD_CAT_ID><ELEMENT_SET_NO>999</ELEMENT_SET_NO><REV_AT_EPOCH>35113</REV_AT_EPOCH><BSTAR>.68377E-3</BSTAR><MEAN_MOTION_DOT>.209E-4</MEAN_MOTION_DOT><MEAN_MOTION_DDOT>0</MEAN_MOTION_DDOT></tleParameters></data></segment></body></omm>
<omm id="CCSDS_OMM_VERS" version="2.0">
<header><CREATION_DATE/><ORIGINATOR/></header><body><segment><metadata><OBJECT_NAME>ORBCOMM FM03 [-]</OBJECT_NAME><OBJECT_ID>1998-007B</OBJECT_ID><CENTER_NAME>EARTH</CENTER_NAME><REF_FRAME>TEME</REF_FRAME><TIME_SYSTEM>UTC</TIME_SYSTEM><MEAN_ELEMENT_THEORY>SGP4</MEAN_ELEMENT_THEORY></metadata><data><meanElements><EPOCH>2023-09-30T18:37:11.393184</EPOCH><MEAN_MOTION>14.31295742</MEAN_MOTION><ECCENTRICITY>.0049847</ECCENTRICITY><INCLINATION>107.9828</INCLINATION><RA_OF_ASC_NODE>294.0001</RA_OF_ASC_NODE><ARG_OF_PERICENTER>260.1205</ARG_OF_PERICENTER><MEAN_ANOMALY>99.4304</MEAN_ANOMALY></meanElements><tleParameters><EPHEMERIS_TYPE>0</EPHEMERIS_TYPE><CLASSIFICATION_TYPE>U</CLASSIFICATION_TYPE><NORAD_CAT_ID>25158</NORAD_CAT_ID><ELEMENT_SET_NO>999</ELEMENT_SET_NO><REV_AT_EPOCH>33460</REV_AT_EPOCH><BSTAR>.61353E-3</BSTAR><MEAN_MOTION_DOT>.1517E-4</MEAN_MOTION_DOT><MEAN_MOTION_DDOT>0</MEAN_MOTION_DDOT></tleParameters></data></segment></body></omm>
<omm id="CCSDS_OMM_VERS" version="2.0">
<header><CREATION_DATE/><ORIGINATOR/></header><body><segment><metadata><OBJECT_NAME>ORBCOMM FM04 [+]</OBJECT_NAME><OBJECT_ID>1998-007C</OBJECT_ID><CENTER_NAME>EARTH</CENTER_NAME><REF_FRAME>TEME</REF_FRAME><TIME_SYSTEM>UTC</TIME_SYSTEM><MEAN_ELEMENT_THEORY>SGP4</MEAN_ELEMENT_THEORY></metadata><data><meanElements><EPOCH>2023-10-01T00:21:04.028544</EPOCH><MEAN_MOTION>14.31570409</MEAN_MOTION><ECCENTRICITY>.0045332</ECCENTRICITY><INCLINATION>107.9807</INCLINATION><RA_OF_ASC_NODE>297.2765</RA_OF_ASC_NODE><ARG_OF_PERICENTER>257.8354</ARG_OF_PERICENTER><MEAN_ANOMALY>101.7704</MEAN_ANOMALY></meanElements><tleParameters><EPHEMERIS_TYPE>0</EPHEMERIS_TYPE><CLASSIFICATION_TYPE>U</CLASSIFICATION_TYPE><NORAD_CAT_ID>25159</NORAD_CAT_ID><ELEMENT_SET_NO>999</ELEMENT_SET_NO><REV_AT_EPOCH>33477</REV_AT_EPOCH><BSTAR>.58253E-3</BSTAR><MEAN_MOTION_DOT>.1438E-4</MEAN_MOTION_DOT><MEAN_MOTION_DDOT>0</MEAN_MOTION_DDOT></tleParameters></data></segment></body></omm>
<omm id="CCSDS_OMM_VERS" version="2.0">
<header><CREATION_DATE/><ORIGINATOR/></header><body><segment><metadata><OBJECT_NAME>ORBCOMM FM17 [-]</OBJECT_NAME><OBJECT_ID>1998-046A</OBJECT_ID><CENTER_NAME>EARTH</CENTER_NAME><REF_FRAME>TEME</REF_FRAME><TIME_SYSTEM>UTC</TIME_SYSTEM><MEAN_ELEMENT_THEORY>SGP4</MEAN_ELEMENT_THEORY></metadata><data><meanElements><EPOCH>2023-09-30T10:15:36.854496</EPOCH><MEAN_MOTION>14.32351402</MEAN_MOTION><ECCENTRICITY>.0003403</ECCENTRICITY><INCLINATION>44.9960</INCLINATION><RA_OF_ASC_NODE>323.9845</RA_OF_ASC_NODE><ARG_OF_PERICENTER>284.3453</ARG_OF_PERICENTER><MEAN_ANOMALY>75.7015</MEAN_ANOMALY></meanElements><tleParameters><EPHEMERIS_TYPE>0</EPHEMERIS_TYPE><CLASSIFICATION_TYPE>U</CLASSIFICATION_TYPE><NORAD_CAT_ID>25413</NORAD_CAT_ID><ELEMENT_SET_NO>999</ELEMENT_SET_NO><REV_AT_EPOCH>31354</REV_AT_EPOCH><BSTAR>.53166E-3</BSTAR><MEAN_MOTION_DOT>.1309E-4</MEAN_MOTION_DOT><MEAN_MOTION_DDOT>0</MEAN_MOTION_DDOT></tleParameters></data></segment></body></omm>
<omm id="CCSDS_OMM_VERS" version="2.0">
<header><CREATION_DATE/><ORIGINATOR/></header><body><segment><metadata><OBJECT_NAME>ORBCOMM FM18 [-]</OBJECT_NAME><OBJECT_ID>1998-046B</OBJECT_ID><CENTER_NAME>EARTH</CENTER_NAME><REF_FRAME>TEME</REF_FRAME><TIME_SYSTEM>UTC</TIME_SYSTEM><MEAN_ELEMENT_THEORY>SGP4</MEAN_ELEMENT_THEORY></metadata><data><meanElements><EPOCH>2023-09-30T16:35:34.482048</EPOCH><MEAN_MOTION>14.34840925</MEAN_MOTION><ECCENTRICITY>.000488</ECCENTRICITY><INCLINATION>44.9930</INCLINATION><RA_OF_ASC_NODE>254.3371</RA_OF_ASC_NODE><ARG_OF_PERICENTER>349.7628</ARG_OF_PERICENTER><MEAN_ANOMALY>10.3119</MEAN_ANOMALY></meanElements><tleParameters><EPHEMERIS_TYPE>0</EPHEMERIS_TYPE><CLASSIFICATION_TYPE>U</CLASSIFICATION_TYPE><NORAD_CAT_ID>25414</NORAD_CAT_ID><ELEMENT_SET_NO>999</ELEMENT_SET_NO><REV_AT_EPOCH>31447</REV_AT_EPOCH><BSTAR>.79877E-3</BSTAR><MEAN_MOTION_DOT>.2148E-4</MEAN_MOTION_DOT><MEAN_MOTION_DDOT>0</MEAN_MOTION_DDOT></tleParameters></data></segment></body></omm>
<omm id="CCSDS_OMM_VERS" version="2.0">
<header><CREATION_DATE/><ORIGINATOR/></header><body><segment><metadata><OBJECT_NAME>ORBCOMM FM19 [+]</OBJECT_NAME><OBJECT_ID>1998-046C</OBJECT_ID><CENTER_NAME>EARTH</CENTER_NAME><REF_FRAME>TEME</REF_FRAME><TIME_SYSTEM>UTC</TIME_SYSTEM><MEAN_ELEMENT_THEORY>SGP4</MEAN_ELEMENT_THEORY></metadata><data><meanElements><EPOCH>2023-09-30T23:38:22.672032</EPOCH><MEAN_MOTION>14.34720680</MEAN_MOTION><ECCENTRICITY>.0004174</ECCENTRICITY><INCLINATION>44.9939</INCLINATION><RA_OF_ASC_NODE>254.0879</RA_OF_ASC_NODE><ARG_OF_PERICENTER>337.4250</ARG_OF_PERICENTER><MEAN_ANOMALY>37.8876</MEAN_ANOMALY></meanElements><tleParameters><EPHEMERIS_TYPE>0</EPHEMERIS_TYPE><CLASSIFICATION_TYPE>U</CLASSIFICATION_TYPE><NORAD_CAT_ID>25415</NORAD_CAT_ID><ELEMENT_SET_NO>999</ELEMENT_SET_NO><REV_AT_EPOCH>31451</REV_AT_EPOCH><BSTAR>.85328E-3</BSTAR><MEAN_MOTION_DOT>.2298E-4</MEAN_MOTION_DOT><MEAN_MOTION_DDOT>0</MEAN_MOTION_DDOT></tleParameters></data></segment></body></omm>

</ndm>
